OBJECT_NAME,OBJECT_ID,EPOCH,MEAN_MOTION,ECCENTRICITY,INCLINATION,RA_OF_ASC_NODE,ARG_OF_PERICENTER,MEAN_ANOMALY,EPHEMERIS_TYPE,CLASSIFICATION_TYPE,NORAD_CAT_ID,ELEMENT_SET_NO,REV_AT_EPOCH,BSTAR,MEAN_MOTION_DOT,MEAN_MOTION_DDOT
TDRS 13,2017-047A,2026-07-02T17:21:00.802944,1.00272517,.0015143,3.4552,3.0989,108.9449,57.5559,0,U,42915,999,3250,0,-.89E-6,0
QZS-3 (MICHIBIKI-3),2017-048A,2026-07-02T19:55:25.142304,1.00268778,.0002228,0.0766,134.3955,325.6392,246.7034,0,U,42917,999,3241,0,-.337E-5,0
AMAZONAS 5,2017-053A,2026-07-02T05:08:15.520128,1.00272699,.0001664,0.0325,325.1790,101.7064,229.4374,0,U,42934,999,3219,0,-.272E-5,0
ASIASAT 9,2017-057A,2026-07-02T21:24:20.600640,1.00263817,.0002299,0.0453,63.2871,35.9112,264.9806,0,U,42942,999,3201,0,0,0
INTELSAT 37E (IS-37E),2017-059A,2026-07-02T19:01:47.964000,1.00272973,.0002837,0.0182,34.0408,68.0515,86.1828,0,U,42950,999,3222,0,-.13E-5,0
BSAT-4A,2017-059B,2026-07-02T21:10:32.102400,1.00271466,.0003938,0.0364,339.7052,98.8918,269.7892,0,U,42951,999,3195,0,-.339E-5,0
QZS-4 (MICHIBIKI-4),2017-062A,2026-07-02T18:25:04.515168,1.00294869,.0746818,40.1001,343.2884,268.3349,83.7779,0,U,42965,999,3196,0,-.316E-5,0
SES-11 (ECHOSTAR 105),2017-063A,2026-07-02T16:54:17.554176,1.00271625,.0002934,0.0197,332.7960,127.7280,328.8454,0,U,42967,999,3187,0,-.79E-6,0
KOREASAT 5A,2017-067A,2026-07-02T19:44:26.358720,1.00269280,.0000902,0.0246,300.5354,152.9445,236.6216,0,U,42984,999,3168,0,-.347E-5,0
ALCOMSAT 1,2017-078A,2026-07-02T17:17:08.673792,1.00270572,.0002552,0.0152,62.6702,34.5312,58.0257,0,U,43039,999,3145,0,-.176E-5,0
SBIRS GEO-3 (USA 282),2018-009A,2026-07-02T18:21:22.399776,1.00272730,.0002218,2.1946,12.8052,84.5660,299.3770,0,U,43162,999,3100,0,.138E-5,0
AL YAH 3,2018-012A,2026-07-02T19:01:10.525152,1.00271178,.0004069,1.5898,82.9359,16.5355,86.5332,0,U,43174,999,3100,0,-.146E-5,0
SES-14,2018-012B,2026-07-02T18:53:18.779424,1.00270755,.0001294,0.0127,27.7702,73.8319,55.0474,0,U,43175,999,718,0,-.268E-5,0
GOES 17,2018-022A,2026-07-02T15:16:05.946816,1.00271770,.0000734,0.9741,85.4682,41.6240,293.1097,0,U,43226,999,3057,0,-.172E-5,0
HISPASAT 30W-6,2018-023A,2026-07-02T15:33:04.320288,1.00271750,.0005797,0.0424,45.4228,35.4158,43.1160,0,U,43228,999,3056,0,-.205E-5,0
SUPERBIRD-B3,2018-033A,2026-07-02T18:10:23.452896,1.00272254,.0001193,0.0160,15.2519,88.0014,252.1498,0,U,43271,999,3021,0,-.81E-6,0
HYLAS 4,2018-033B,2026-07-02T18:57:18.396000,1.00268685,.0000974,0.0202,24.2276,121.2451,26.1743,0,U,43272,999,3022,0,0,0
IRNSS-1I,2018-035A,2026-06-28T19:05:38.535360,1.00277388,.0017671,28.7805,74.0157,182.6115,1.5908,0,U,43286,999,3019,0,.66E-6,0
USA 283,2018-036A,2026-07-01T11:14:42.491040,1.00269042,.0000064,0.0077,35.3198,9.2412,177.7500,0,U,43339,999,2543,0,0,0
COSMOS 2526,2018-037A,2026-07-02T21:32:01.102272,1.00268513,.0000659,0.0344,77.9657,200.1132,93.8891,0,U,43432,999,3011,0,-.334E-5,0
APSTAR-6C,2018-041A,2026-07-02T21:34:33.929184,1.00269634,.0000233,0.0397,309.4367,81.3830,347.7401,0,U,43450,999,2996,0,-.307E-5,0
BANGABANDHUSAT-1,2018-044A,2026-07-02T19:47:29.157792,1.00273397,.0002025,0.0275,90.5346,11.4345,234.8607,0,U,43463,999,2986,0,-.352E-5,0
SES-12,2018-049A,2026-07-02T21:07:48.091008,1.00278711,.0000158,0.0116,2.5528,224.3201,105.9984,0,U,43488,999,2957,0,-.26E-5,0
FENGYUN 2H,2018-050A,2026-07-02T22:01:48.374400,1.00269448,.0001783,3.0700,78.8964,121.4669,130.3322,0,U,43491,999,2959,0,-.119E-5,0
BEIDOU-2 IGSO-7,2018-057A,2026-07-01T21:23:21.693984,1.00246939,.01049468,55.1981,162.9292,237.8611,308.6338,0,U,43539,999,2927,0,-.33E-6,0
TELSTAR 19V,2018-059A,2026-07-02T06:50:16.996416,1.00270343,.0003108,0.0294,140.3912,341.2792,198.2196,0,U,43562,999,2929,0,-.269E-5,0
TELKOM 4 (MERAH PUTIH),2018-064A,2026-07-02T20:10:05.590272,1.00269769,.0001614,0.0154,18.9563,108.4972,203.9469,0,U,43587,999,2903,0,0,0
TELSTAR 18V,2018-069A,2026-07-02T19:46:16.718304,1.00271847,.0002133,0.0237,291.1832,169.3427,254.9036,0,U,43611,999,2879,0,-.283E-5,0
AZERSPACE 2 (IS-38),2018-074A,2026-07-02T19:19:43.771008,1.00276723,.0001885,0.0228,36.6472,74.6484,144.5913,0,U,43632,999,2860,0,0,0
HORIZONS-3E,2018-074B,2026-07-02T16:29:49.898112,1.00271230,.0000602,0.0166,197.9110,85.7941,53.4880,0,U,43633,999,2849,0,-.2E-6,0
AEHF-4 (USA 288),2018-079A,2026-07-02T13:39:50.372064,1.00267837,.0059791,1.4366,5.2231,355.5325,57.2212,0,U,43651,999,2845,0,-.264E-5,0
BEIDOU-3 G1,2018-085A,2026-07-02T19:52:31.119744,1.00271019,.000856,2.9063,96.9616,353.3687,288.5756,0,U,43683,999,2821,0,-.1E-5,0
